NORAD_CAT_ID,OBJECT_NAME,OBJECT_TYPE,EPOCH,MEAN_MOTION,ECCENTRICITY,INCLINATION,RA_OF_ASC_NODE,ARG_OF_PERICENTER,MEAN_ANOMALY,BSTAR,MEAN_MOTION_DOT,MEAN_MOTION_DDOT,TLE_LINE0,TLE_LINE1,TLE_LINE2,SEMIMAJOR_AXIS,PERIOD,APOGEE,PERIGEE,DECAYED
53927.0,STARLINK-5008,PAYLOAD,2024-05-23 18:19:02,15.08841339,0.0001319,53.2186,9.197,77.9341,282.1799,-1.1639e-05,-4.73e-06,0.0,0 STARLINK-5008,1 53927U 22119AT  24144.76322284 -.00000473  00000-0 -11639-4 0  9990,2 53927  53.2186   9.1970 0001319  77.9341 282.1799 15.08841339 92601,6917.876,95.437,540.654,538.829,0.0
53927.0,STARLINK-5008,PAYLOAD,2024-05-23 21:29:48,15.08842936,0.0001291,53.2183,8.6017,81.2369,278.8769,5.8798e-06,-1.94e-06,0.0,0 STARLINK-5008,1 53927U 22119AT  24144.89570259 -.00000194  00000-0  58798-5 0  9998,2 53927  53.2183   8.6017 0001291  81.2369 278.8769 15.08842936 93043,6917.871,95.437,540.63,538.843,0.0
53927.0,STARLINK-5008,PAYLOAD,2024-05-24 00:40:34,15.08843031,0.0001287,53.2185,8.0023,82.8249,277.289,5.051e-06,-2.07e-06,0.0,0 STARLINK-5008,1 53927U 22119AT  24145.02818163 -.00000207  00000-0  50510-5 0  9992,2 53927  53.2185   8.0023 0001287  82.8249 277.2890 15.08843031 93062,6917.871,95.437,540.626,538.846,0.0
53927.0,STARLINK-5008,PAYLOAD,2024-05-24 21:20:36,15.08835342,0.0001119,53.2185,4.1391,78.306,281.8057,2.0841e-05,4.4e-07,0.0,0 STARLINK-5008,1 53927U 22119AT  24145.88930702  .00000044  00000-0  20841-4 0  9991,2 53927  53.2185   4.1391 0001119  78.3060 281.8057 15.08835342 92771,6917.895,95.438,540.534,538.986,0.0
53927.0,STARLINK-5008,PAYLOAD,2024-05-25 14:49:50,15.08834644,0.0001107,53.2183,0.8682,94.7759,265.3359,3.6939e-05,3e-06,0.0,0 STARLINK-5008,1 53927U 22119AT  24146.61794953  .00000300  00000-0  36939-4 0  9999,2 53927  53.2183   0.8682 0001107  94.7759 265.3359 15.08834644 93305,6917.897,95.438,540.528,538.996,0.0
53927.0,STARLINK-5008,PAYLOAD,2024-05-25 21:11:23,15.08835539,0.0001059,53.2185,359.6795,88.7476,271.3638,4.3284e-05,4.01e-06,0.0,0 STARLINK-5008,1 53927U 22119AT  24146.88291053  .00000401  00000-0  43284-4 0  9994,2 53927  53.2185 359.6795 0001059  88.7476 271.3638 15.08835539 93347,6917.894,95.438,540.492,539.026,0.0
53927.0,STARLINK-5008,PAYLOAD,2024-05-26 21:02:25,15.08637655,0.0002191,53.2194,355.2303,105.6539,254.4695,-0.0016009,-0.00025537,0.0,0 STARLINK-5008,1 53927U 22119AT  24147.87667834 -.00025537  00000-0 -16009-2 0  9990,2 53927  53.2194 355.2303 0002191 105.6539 254.4695 15.08637655 93075,6918.499,95.45,541.88,538.848,0.0
53927.0,STARLINK-5008,PAYLOAD,2024-05-27 01:48:19,15.08843059,0.0001146,53.2185,354.3291,96.3399,263.7724,0.00015005,2.101e-05,0.0,0 STARLINK-5008,1 53927U 22119AT  24148.07522465  .00002101  00000-0  15005-3 0  9999,2 53927  53.2185 354.3291 0001146  96.3399 263.7724 15.08843059 93107,6917.871,95.437,540.529,538.943,0.0
53927.0,STARLINK-5008,PAYLOAD,2024-05-27 06:34:28,15.0884944,8.21e-05,53.2192,353.4457,148.8345,211.2696,0.00021356,3.114e-05,0.0,0 STARLINK-5008,1 53927U 22119AT  24148.27393789  .00003114  00000-0  21356-3 0  9997,2 53927  53.2192 353.4457 0000821 148.8345 211.2696 15.08849440 93131,6917.852,95.437,540.284,539.149,0.0
53927.0,STARLINK-5008,PAYLOAD,2024-05-27 20:52:57,15.08835669,0.0001234,53.2192,350.761,77.0729,283.0401,8.6689e-05,1.092e-05,0.0,0 STARLINK-5008,1 53927U 22119AT  24148.87011291  .00001092  00000-0  86689-4 0  9992,2 53927  53.2192 350.7610 0001234  77.0729 283.0401 15.08835669 93229,6917.894,95.438,540.612,538.905,0.0
53927.0,STARLINK-5008,PAYLOAD,2024-05-28 06:25:16,15.08841366,0.0001209,53.2191,348.9755,88.5091,271.604,8.7132e-05,1.099e-05,0.0,0 STARLINK-5008,1 53927U 22119AT  24149.26754912  .00001099  00000-0  87132-4 0  9991,2 53927  53.2191 348.9755 0001209  88.5091 271.6040 15.08841366 93704,6917.876,95.437,540.578,538.905,0.0
53927.0,STARLINK-5008,PAYLOAD,2024-05-28 22:19:07,15.08840204,0.0001305,53.2198,346.0011,91.3594,268.7548,4.0788e-05,3.61e-06,0.0,0 STARLINK-5008,1 53927U 22119AT  24149.92995109  .00000361  00000-0  40788-4 0  9996,2 53927  53.2198 346.0011 0001305  91.3594 268.7548 15.08840204 93803,6917.88,95.438,540.648,538.842,0.0
53927.0,STARLINK-5008,PAYLOAD,2024-05-29 22:09:55,15.08838266,0.0001186,53.2189,341.5393,86.4297,273.683,2.4943e-05,1.09e-06,0.0,0 STARLINK-5008,1 53927U 22119AT  24150.92355368  .00000109  00000-0  24943-4 0  9990,2 53927  53.2189 341.5393 0001186  86.4297 273.6830 15.08838266 93958,6917.886,95.438,540.571,538.93,0.0
53927.0,STARLINK-5008,PAYLOAD,2024-05-30 12:28:22,15.0884242,0.0001118,53.2186,338.8633,87.0292,273.0828,7.8399e-05,9.6e-06,0.0,0 STARLINK-5008,1 53927U 22119AT  24151.51971031  .00000960  00000-0  78399-4 0  9996,2 53927  53.2186 338.8633 0001118  87.0292 273.0828 15.08842420 93620,6917.873,95.437,540.511,538.965,0.0
53927.0,STARLINK-5008,PAYLOAD,2024-05-30 18:49:55,15.08848272,0.0001149,53.2181,337.6763,85.5245,274.5878,0.00012307,1.672e-05,0.0,0 STARLINK-5008,1 53927U 22119AT  24151.78466473  .00001672  00000-0  12307-3 0  9991,2 53927  53.2181 337.6763 0001149  85.5245 274.5878 15.08848272 94084,6917.855,95.437,540.515,538.925,0.0
53927.0,STARLINK-5008,PAYLOAD,2024-05-31 18:40:42,15.08838128,0.0001241,53.2187,333.2156,94.3486,265.7648,5.1431e-05,5.31e-06,0.0,0 STARLINK-5008,1 53927U 22119AT  24152.77827113  .00000531  00000-0  51431-4 0  9998,2 53927  53.2187 333.2156 0001241  94.3486 265.7648 15.08838128 93812,6917.886,95.438,540.61,538.893,0.0
53927.0,STARLINK-5008,PAYLOAD,2024-06-02 04:03:47,15.08854065,0.0001241,53.2193,326.9722,120.4476,239.6639,1.2896e-05,-8.3e-07,0.0,0 STARLINK-5008,1 53927U 22119AT  24154.16929905 -.00000083  00000-0  12896-4 0  9990,2 53927  53.2193 326.9722 0001241 120.4476 239.6639 15.08854065 94029,6917.837,95.437,540.561,538.844,0.0
53927.0,STARLINK-5008,PAYLOAD,2024-06-02 21:33:03,15.08831726,0.0001331,53.2204,323.7022,97.498,262.6164,2.1422e-05,5.3e-07,0.0,0 STARLINK-5008,1 53927U 22119AT  24154.89795671  .00000053  00000-0  21422-4 0  9992,2 53927  53.2204 323.7022 0001331  97.4980 262.6164 15.08831726 94559,6917.906,95.438,540.691,538.85,0.0
53927.0,STARLINK-5008,PAYLOAD,2024-06-03 03:54:36,15.08834955,0.0002923,53.22,322.5133,87.7568,272.3759,6.2078e-05,6.99e-06,0.0,0 STARLINK-5008,1 53927U 22119AT  24155.16292225  .00000699  00000-0  62078-4 0  9998,2 53927  53.2200 322.5133 0002923  87.7568 272.3759 15.08834955 94170,6917.896,95.438,541.783,537.739,0.0
53927.0,STARLINK-5008,PAYLOAD,2024-06-03 21:23:50,15.08841782,0.0001371,53.2193,319.2394,90.7,269.4149,7.6415e-05,9.28e-06,0.0,0 STARLINK-5008,1 53927U 22119AT  24155.89155248  .00000928  00000-0  76415-4 0  9996,2 53927  53.2193 319.2394 0001371  90.7000 269.4149 15.08841782 94709,6917.875,95.437,540.688,538.792,0.0
53927.0,STARLINK-5008,PAYLOAD,2024-06-04 03:45:21,15.08860161,9.91e-05,53.2194,318.0498,87.356,272.7546,0.00018077,2.592e-05,0.0,0 STARLINK-5008,1 53927U 22119AT  24156.15649480  .00002592  00000-0  18077-3 0  9990,2 53927  53.2194 318.0498 0000991  87.3560 272.7546 15.08860161 94320,6917.819,95.436,540.369,538.998,0.0
53927.0,STARLINK-5008,PAYLOAD,2024-06-04 19:39:14,15.08836979,0.0001643,53.2216,315.0774,86.6037,273.5143,2.941e-05,1.8e-06,0.0,0 STARLINK-5008,1 53927U 22119AT  24156.81891828  .00000180  00000-0  29410-4 0  9993,2 53927  53.2216 315.0774 0001643  86.6037 273.5143 15.08836979 94844,6917.89,95.438,540.891,538.618,0.0
53927.0,STARLINK-5008,PAYLOAD,2024-06-05 09:57:42,15.08835942,0.0001498,53.221,312.4014,88.0188,272.0976,1.2349e-05,-9.1e-07,0.0,0 STARLINK-5008,1 53927U 22119AT  24157.41507999 -.00000091  00000-0  12349-4 0  9998,2 53927  53.2210 312.4014 0001498  88.0188 272.0976 15.08835942 94934,6917.893,95.438,540.794,538.721,0.0
53927.0,STARLINK-5008,PAYLOAD,2024-06-06 03:26:57,15.08843943,0.0001535,53.2176,309.1289,84.6936,275.4231,-1.0476e-05,-4.55e-06,0.0,0 STARLINK-5008,1 53927U 22119AT  24158.14371696 -.00000455  00000-0 -10476-4 0  9996,2 53927  53.2176 309.1289 0001535  84.6936 275.4231 15.08843943 94624,6917.868,95.437,540.795,538.671,0.0
53927.0,STARLINK-5008,PAYLOAD,2024-06-07 09:39:16,15.08842529,0.0001068,53.2189,303.4792,84.2307,275.8807,0.00012432,1.691e-05,0.0,0 STARLINK-5008,1 53927U 22119AT  24159.40227608  .00001691  00000-0  12432-3 0  9993,2 53927  53.2189 303.4792 0001068  84.2307 275.8807 15.08842529 94816,6917.873,95.437,540.476,538.999,0.0
53927.0,STARLINK-5008,PAYLOAD,2024-06-07 16:00:49,15.0884054,0.0001228,53.22,302.2886,88.6299,271.4834,6.7185e-05,7.82e-06,0.0,0 STARLINK-5008,1 53927U 22119AT  24159.66723968  .00000782  00000-0  67185-4 0  9997,2 53927  53.2200 302.2886 0001228  88.6299 271.4834 15.08840540 95271,6917.879,95.438,540.593,538.894,0.0
53927.0,STARLINK-5008,PAYLOAD,2024-06-08 12:40:50,15.08842914,0.0001831,53.2163,298.4194,112.5003,247.6183,9.8649e-05,1.282e-05,0.0,0 STARLINK-5008,1 53927U 22119AT  24160.52835664  .00001282  00000-0  98649-4 0  9996,2 53927  53.2163 298.4194 0001831 112.5003 247.6183 15.08842914 94983,6917.871,95.437,541.003,538.47,0.0
53927.0,STARLINK-5008,PAYLOAD,2024-06-08 19:02:22,15.08844409,0.0001988,53.2192,297.2327,98.1631,261.9586,0.00010813,1.433e-05,0.0,0 STARLINK-5008,1 53927U 22119AT  24160.79331458  .00001433  00000-0  10813-3 0  9991,2 53927  53.2192 297.2327 0001988  98.1631 261.9586 15.08844409 95448,6917.867,95.437,541.107,538.357,0.0
53927.0,STARLINK-5008,PAYLOAD,2024-06-09 12:31:37,15.08836692,0.0002046,53.2184,293.961,100.3343,259.788,7.0097e-05,8.27e-06,0.0,0 STARLINK-5008,1 53927U 22119AT  24161.52196110  .00000827  00000-0  70097-4 0  9994,2 53927  53.2184 293.9610 0002046 100.3343 259.7880 15.08836692 95132,6917.891,95.438,541.171,538.34,0.0
53927.0,STARLINK-5008,PAYLOAD,2024-06-09 15:42:23,15.0883589,0.0001769,53.2189,293.3685,87.3738,272.7456,6.3425e-05,7.21e-06,0.0,0 STARLINK-5008,1 53927U 22119AT  24161.65444281  .00000721  00000-0  63425-4 0  9993,2 53927  53.2189 293.3685 0001769  87.3738 272.7456 15.08835890 95577,6917.893,95.438,540.982,538.534,0.0
